ONEWEB-0328             
1 49197U 21083M   26150.01497369  .00000294  00000+0  76997-3 0  9992
2 49197  87.8949 323.8279 0001797  96.7785 263.3548 13.13468272228513
ONEWEB-0331             
1 49198U 21083N   26150.01253163  .00000081  00000+0  17232-3 0  9996
2 49198  87.9166 339.0662 0002157  90.9219 269.2160 13.18687117227611
ONEWEB-0333             
1 49199U 21083P   26150.00989270  .00000331  00000+0  87230-3 0  9994
2 49199  87.8938 323.8569 0001828  90.3592 269.7747 13.13468355228520
ONEWEB-0334             
1 49200U 21083Q   26149.88558040  .00000211  00000+0  48726-3 0  9992
2 49200  87.9176 278.0955 0001014  84.6975 275.4274 13.20771246234379
ONEWEB-0335             
1 49201U 21083R   26150.00482520  .00000294  00000+0  77135-3 0  9995
2 49201  87.8939 323.8546 0001975  93.0145 267.1210 13.13469836228530
ONEWEB-0336             
1 49202U 21083S   26149.89985545 -.00000241  00000+0 -69480-3 0  9994
2 49202  87.8940 323.8713 0002181  98.6370 261.5006 13.13469340228519
ONEWEB-0337             
1 49203U 21083T   26149.52899273  .00000021  00000+0  22037-4 0  9999
2 49203  87.8938 323.9515 0001871  98.7272 261.4070 13.13469589228464
ONEWEB-0338             
1 49204U 21083U   26149.78370339  .00000027  00000+0  34998-4 0  9990
2 49204  87.9171 278.1192 0001578  95.5579 264.5734 13.20773864234387
ONEWEB-0339             
1 49205U 21083V   26149.91847989  .00000172  00000+0  43498-3 0  9991
2 49205  87.8938 323.8661 0001497  92.0687 268.0614 13.13470082228498
ONEWEB-0340             
1 49206U 21083W   26149.99904203  .00000103  00000+0  22732-3 0  9995
2 49206  87.9165 339.0744 0001955  91.3276 268.8080 13.18687242227574
ONEWEB-0341             
1 49207U 21083X   26150.00578579  .00000091  00000+0  19893-3 0  9993
2 49207  87.9159 339.0775 0001844 105.1686 254.9650 13.18686251227598
ONEWEB-0342             
1 49208U 21083Y   26149.79045800  .00000030  00000+0  41730-4 0  9993
2 49208  87.9181 278.1041 0001777  99.8908 260.2426 13.20772429234353
ONEWEB-0343             
1 49209U 21083Z   26150.01421949  .00000055  00000+0  10595-3 0  9994
2 49209  87.9164 339.0741 0001402  89.8047 270.3246 13.18685544227641
ONEWEB-0344             
1 49210U 21083AA  26149.91341382  .00000054  00000+0  11203-3 0  9991
2 49210  87.8929 323.8829 0001827 105.1434 254.9897 13.13472012228495
ONEWEB-0345             
1 49211U 21083AB  26149.90493570 -.00000181  00000+0 -53102-3 0  9995
2 49211  87.8948 323.8624 0001772 103.3863 256.7464 13.13470455228506
ONEWEB-0346             
1 49212U 21083AC  26150.01084361  .00000066  00000+0  13380-3 0  9998
2 49212  87.9157 339.0761 0002484  89.9859 270.1557 13.18686110227588
ONEWEB-0348             
1 49213U 21083AD  26149.78034436  .00000037  00000+0  57934-4 0  9991
2 49213  87.9181 278.1099 0002368 106.8855 253.2538 13.20771095234386
ONEWEB-0350             
1 49214U 21083AE  26149.91437058 -.00012364  00000+0 -33989-1 0  9993
2 49214  87.8947 323.8624 0001745  91.6724 268.4605 13.13368502228532
ONEWEB-0351             
1 49215U 21083AF  26149.77347085  .00000045  00000+0  78425-4 0  9996
2 49215  87.9183 278.1098 0001199 121.0382 239.0869 13.20773413234345
ONEWEB-0352             
1 49216U 21083AG  26149.89478091 -.00000301  00000+0 -85944-3 0  9992
2 49216  87.8940 323.8767 0001381  94.0710 266.0577 13.13469462228622
ONEWEB-0354             
1 49217U 21083AH  26149.80057063  .00000007  00000+0 -14338-4 0  9998
2 49217  87.9180 278.1035 0002199 108.1614 251.9759 13.20771932234389
ONEWEB-0355             
1 49218U 21083AJ  26149.99987573  .00000287  00000+0  75031-3 0  9992
2 49218  87.8930 323.8581 0001640  98.2968 261.8347 13.13469436228513
ONEWEB-0357             
1 49219U 21083AK  26149.79720124  .00000026  00000+0  30967-4 0  9999
2 49219  87.9180 278.0985 0001715 103.2512 256.8813 13.20772302234387
ONEWEB-0332             
1 49279U 21090A   26149.79812505 -.00000108  00000+0 -32691-3 0  9996
2 49279  87.8947 293.3757 0001668  93.1729 266.9591 13.14503892225164
ONEWEB-0347             
1 49280U 21090B   26149.78709675  .00000043  00000+0  73921-4 0  9998
2 49280  87.9180 278.1085 0001750  93.0003 267.1331 13.20773335228613
ONEWEB-0349             
1 49281U 21090C   26149.81907916 -.00000040  00000+0 -13147-3 0  9993
2 49281  87.9179 278.1030 0001907 100.8568 259.2780 13.20769648227407
ONEWEB-0353             
1 49282U 21090D   26149.86632017  .00000004  00000+0 -23021-4 0  9998
2 49282  87.8948 293.3577 0001679  91.2567 268.8755 13.14501797225176
ONEWEB-0356             
1 49283U 21090E   26149.74165230  .00000022  00000+0  23036-4 0  9999
2 49283  87.9180 278.1114 0002548  87.1865 272.9560 13.20772735227390
ONEWEB-0358             
1 49284U 21090F   26149.77108054  .00000066  00000+0  13018-3 0  9990
2 49284  87.9182 278.1091 0002091 101.0009 259.1359 13.20769781228128
ONEWEB-0359             
1 49285U 21090G   26149.76858312  .00000056  00000+0  10504-3 0  9995
2 49285  87.9181 278.1061 0002134 104.9716 255.1654 13.20771879228103
ONEWEB-0360             
1 49286U 21090H   26149.37968640  .00000068  00000+0  13579-3 0  9997
2 49286  87.9180 278.1900 0001990 104.3538 255.7817 13.20773444227364
ONEWEB-0361             
1 49287U 21090J   26149.81569347 -.00000005  00000+0 -45341-4 0  9994
2 49287  87.9180 278.1009 0002057 101.3983 258.7381 13.20769871227875
ONEWEB-0362             
1 49288U 21090K   26149.90537404 -.00000040  00000+0 -13166-3 0  9992
2 49288  87.9151 308.6222 0001611 101.1230 259.0083 13.19726777224504
ONEWEB-0363             
1 49289U 21090L   26149.75511081 -.00000015  00000+0 -69593-4 0  9997
2 49289  87.9181 278.1135 0002334  95.8789 264.2610 13.20794286227872
ONEWEB-0364             
1 49290U 21090M   26149.79381326 -.00000010  00000+0 -55539-4 0  9990
2 49290  87.9175 278.1143 0001906 100.8461 259.2887 13.20770353229011
ONEWEB-0365             
1 49291U 21090N   26149.91485828  .00000090  00000+0  19205-3 0  9992
2 49291  87.9163 308.6076 0001676  94.2134 265.9191 13.19727759224017
ONEWEB-0366             
1 49292U 21090P   26149.86314183  .00000091  00000+0  21066-3 0  9991
2 49292  87.8943 293.3611 0001861  98.9900 261.1440 13.14501449225158
ONEWEB-0367             
1 49293U 21090Q   26149.75427485  .00000051  00000+0  93206-4 0  9992
2 49293  87.9181 278.1146 0001770 103.6364 256.4967 13.20772063227393
ONEWEB-0368             
1 49294U 21090R   26149.80393642 -.00000027  00000+0 -98288-4 0  9996
2 49294  87.9170 278.1175 0001956  78.4993 281.6360 13.20772330228550
ONEWEB-0369             
1 49295U 21090S   26149.45522109  .00000091  00000+0  19480-3 0  9995
2 49295  87.9151 308.7085 0001770  92.4681 267.6655 13.19727037223945
ONEWEB-0370             
1 49296U 21090T   26149.76351811  .00000042  00000+0  71209-4 0  9994
2 49296  87.9181 278.1127 0001883 108.1895 251.9443 13.20773906227430
ONEWEB-0371             
1 49297U 21090U   26149.91801256  .00000176  00000+0  40848-3 0  9997
2 49297  87.9158 308.6067 0001684  96.6124 263.5201 13.19728286224046
ONEWEB-0372             
1 49298U 21090V   26149.82902446  .00000071  00000+0  14186-3 0  9991
2 49298  87.9182 278.1012 0001862  99.7314 260.4030 13.20770996227415
ONEWEB-0373             
1 49299U 21090W   26149.77866380  .00000060  00000+0  11615-3 0  9994
2 49299  87.9179 278.1120 0001960 101.5516 258.5837 13.20770256228599
ONEWEB-0374             
1 49300U 21090X   26149.85046513  .00000193  00000+0  48557-3 0  9996
2 49300  87.8948 293.3530 0002369  91.1807 268.9594 13.14501746225153
ONEWEB-0375             
1 49301U 21090Y   26149.76689459  .00000099  00000+0  21145-3 0  9998
2 49301  87.9183 278.1057 0002489  96.1943 263.9474 13.20772083228099
ONEWEB-0376             
1 49302U 21090Z   26149.91642317  .00000141  00000+0  32109-3 0  9998
2 49302  87.9162 308.6065 0001623  92.0383 268.0935 13.19725162224040
ONEWEB-0377             
1 49303U 21090AA  26149.75356777  .00000036  00000+0  57727-4 0  9990
2 49303  87.9181 278.1104 0002118 102.7649 257.3721 13.20770966228087
ONEWEB-0378             
1 49304U 21090AB  26149.77375541  .00000063  00000+0  12280-3 0  9997
2 49304  87.9176 278.1122 0002003  96.6178 263.5183 13.20773309227357
ONEWEB-0379             
1 49305U 21090AC  26149.84569759  .00000239  00000+0  60887-3 0  9993
2 49305  87.8946 293.3652 0001941  95.7344 264.4008 13.14501674225153
ONEWEB-0380             
1 49306U 21090AD  26149.91327691  .00000150  00000+0  34327-3 0  9991
2 49306  87.9152 308.6142 0001971  98.5524 261.5832 13.19725943224011
ONEWEB-0381             
1 49307U 21090AE  26149.82582098  .00000041  00000+0  67990-4 0  9998
2 49307  87.9181 278.1007 0002172  96.5699 263.5682 13.20772425227400
ONEWEB-0382             
1 49308U 21090AF  26149.81232436 -.00000024  00000+0 -91369-4 0  9996
2 49308  87.9179 278.0977 0002153  94.8208 265.3171 13.20772136227399
ONEWEB-0383             
1 49309U 21090AG  26149.76323824  .00000110  00000+0  26103-3 0  9990
2 49309  87.8953 293.3723 0001872  92.6843 267.4501 13.14504134225174
ONEWEB-0384             
1 49310U 21090AH  26149.72578808 -.00000090  00000+0 -25338-3 0  9990
2 49310  87.9182 278.1586 0002235  90.6811 269.4578 13.20811439227394
ONEWEB-0385             
1 49311U 21090AJ  26149.72985911 -.00000052  00000+0 -15987-3 0  9995
2 49311  87.9180 278.1193 0002100  97.7187 262.4185 13.20768356227365
ONEWEB-0386             
1 49312U 21090AK  26149.74669491 -.00000057  00000+0 -17116-3 0  9991
2 49312  87.9184 278.1063 0002066  93.7966 266.3403 13.20771975227387
ONEWEB-0387             
1 49313U 21090AL  26149.73154669  .00000091  00000+0  19251-3 0  9995
2 49313  87.9170 278.1341 0002255 102.7246 257.4140 13.20774278227382
ONEWEB-0388             
1 49314U 21090AM  26149.90854544  .00000030  00000+0  41528-4 0  9990
2 49314  87.9151 308.6133 0001909  92.3386 267.7965 13.19726695224007
